[{"OBJECT_NAME":"STARLINK-33988","OBJECT_ID":"2025-098N","EPOCH":"2026-03-09T23:26:18.344544","MEAN_MOTION":14.98336028,"ECCENTRICITY":0.00028424,"INCLINATION":69.9995,"RA_OF_ASC_NODE":273.8036,"ARG_OF_PERICENTER":297.4252,"MEAN_ANOMALY":62.6618,"EPHEMERIS_TYPE":0,"CLASSIFICATION_TYPE":"U","NORAD_CAT_ID":63938,"ELEMENT_SET_NO":999,"REV_AT_EPOCH":4659,"BSTAR":0.00025609736,"MEAN_MOTION_DOT":2.964e-5,"MEAN_MOTION_DDOT":0},{"OBJECT_NAME":"CZ-4C R\/B","OBJECT_ID":"2024-186B","EPOCH":"2026-03-09T22:51:12.491424","MEAN_MOTION":15.07425891,"ECCENTRICITY":0.00475116,"INCLINATION":97.8722,"RA_OF_ASC_NODE":96.5934,"ARG_OF_PERICENTER":122.4234,"MEAN_ANOMALY":238.1602,"EPHEMERIS_TYPE":0,"CLASSIFICATION_TYPE":"U","NORAD_CAT_ID":61572,"ELEMENT_SET_NO":999,"REV_AT_EPOCH":7672,"BSTAR":0.00027865777,"MEAN_MOTION_DOT":4.262e-5,"MEAN_MOTION_DDOT":0}]
